ONEWEB-0555             
1 56057U 23043M   25195.02078570  .00000041  00000+0  73071-4 0  9992
2 56057  87.9058 296.1725 0001405 102.9487 257.1801 13.16594764115372
ONEWEB-0557             
1 56058U 23043N   25195.03502604  .00000084  00000+0  18590-3 0  9995
2 56058  87.9053 296.1915 0001723 141.7082 218.4171 13.16595905115372
ONEWEB-0558             
1 56059U 23043P   25194.77691495 -.00000022  00000+0 -84536-4 0  9991
2 56059  87.9281 311.4925 0002318  91.2647 268.8753 13.21824602113531
ONEWEB-0559             
1 56060U 23043Q   25194.61449645 -.00000008  00000+0 -51245-4 0  9999
2 56060  87.9281 311.5166 0002382 100.6089 259.5313 13.21826109113529
ONEWEB-0566             
1 56061U 23043R   25194.75958410  .00000029  00000+0  38798-4 0  9999
2 56061  87.9272 311.4863 0002278  96.2606 263.8787 13.21825931113527
ONEWEB-0568             
1 56062U 23043S   25195.20445290  .00000116  00000+0  27064-3 0  9998
2 56062  87.9069 296.1306 0001680  99.6109 260.5211 13.16594747115412
ONEWEB-0574             
1 56063U 23043T   25194.60188015  .00000090  00000+0  18716-3 0  9996
2 56063  87.9274 311.5056 0001937 106.0147 254.1200 13.21825721114450
ONEWEB-0575             
1 56064U 23043U   25195.19812148  .00000113  00000+0  26185-3 0  9998
2 56064  87.9060 296.1402 0001811 113.6613 246.4708 13.16594516115402
ONEWEB-0576             
1 56065U 23043V   25194.72312840  .00000063  00000+0  13145-3 0  9997
2 56065  87.9057 296.2253 0001763 102.5039 257.6289 13.16595315114426
ONEWEB-0577             
1 56066U 23043W   25194.57746806  .00000180  00000+0  43754-3 0  9993
2 56066  87.9064 296.2537 0001837 120.8959 239.2353 13.16593825114439
ONEWEB-0578             
1 56067U 23043X   25194.58926324  .00000096  00000+0  19987-3 0  9997
2 56067  87.9275 311.5194 0001878  99.8950 260.2396 13.21827201114418
ONEWEB-0579             
1 56068U 23043Y   25194.35270701  .00000127  00000+0  27512-3 0  9992
2 56068  87.9272 311.5517 0002241 101.6505 258.4880 13.21824588113486
ONEWEB-0581             
1 56069U 23043Z   25194.58381161  .00000213  00000+0  52223-3 0  9994
2 56069  87.9052 296.2811 0002116 113.6183 246.5170 13.16594688114407
ONEWEB-0609             
1 56070U 23043AA  25194.80471365  .00000051  00000+0  10225-3 0  9993
2 56070  87.9072 326.6850 0001940  93.8154 266.3198 13.15547678111945
ONEWEB-0613             
1 56071U 23043AB  25194.79996016  .00000050  00000+0  98888-4 0  9998
2 56071  87.9078 326.6973 0002147  99.2698 260.8675 13.15548428111944
ONEWEB-0630             
1 56072U 23043AC  25194.79519686 -.00000020  00000+0 -88243-4 0  9996
2 56072  87.9073 326.6750 0002204  96.1857 263.9525 13.15549014111939
ONEWEB-0632             
1 56073U 23043AD  25194.79044545 -.00000028  00000+0 -10761-3 0  9991
2 56073  87.9075 326.6958 0001998 105.1079 255.0273 13.15549065111936
ONEWEB-0633             
1 56074U 23043AE  25194.78409297 -.00000160  00000+0 -46028-3 0  9992
2 56074  87.9069 326.6638 0002248  91.4315 268.7072 13.15550018111910
ONEWEB-0634             
1 56075U 23043AF  25194.76984529 -.00000131  00000+0 -38241-3 0  9993
2 56075  87.9080 326.7038 0001813  88.0861 272.0477 13.15548399111909
ONEWEB-0635             
1 56076U 23043AG  25194.76508702 -.00000094  00000+0 -28423-3 0  9998
2 56076  87.9052 326.6832 0001928 108.1001 252.0340 13.15549170111935
ONEWEB-0636             
1 56077U 23043AH  25195.06139754  .00000056  00000+0  11604-3 0  9999
2 56077  87.9061 326.6357 0001935 106.1573 253.9771 13.15548836112867
ONEWEB-0637             
1 56078U 23043AJ  25195.13110763  .00000195  00000+0  48375-3 0  9996
2 56078  87.9078 326.6301 0001575 104.7539 255.3766 13.15547024112892
ONEWEB-0647             
1 56079U 23043AK  25195.12637115  .00000193  00000+0  47851-3 0  9997
2 56079  87.9075 326.6403 0002050 102.2772 257.8588 13.15549066111979
ONEWEB-0651             
1 56080U 23043AL  25194.66527062  .00000166  00000+0  40793-3 0  9994
2 56080  87.9080 326.7207 0001791 107.5229 252.6097 13.15548066113111
ONEWEB-0718             
1 56081U 23043AM  25194.81263327  .00000142  00000+0  34279-3 0  9999
2 56081  87.9077 326.6745 0001745  85.3965 274.7364 13.15548996111946
ONEWEB-0561             
1 56710U 23068A   25194.86793848 -.00000015  00000+0 -67675-4 0  9994
2 56710  87.9269 341.8534 0002087 110.8607 249.2750 13.20770126105543
ONEWEB-0668             
1 56711U 23068B   25195.19415162  .00000100  00000+0  22718-3 0  9993
2 56711  87.9070 296.1236 0001574  88.6733 271.4578 13.16594821108007
ONEWEB-0676             
1 56712U 23068C   25195.02237940  .00000124  00000+0  29159-3 0  9994
2 56712  87.9058 296.1825 0002193 112.4751 247.6612 13.16595001107905
ONEWEB-0677             
1 56713U 23068D   25194.70538894  .00000005  00000+0 -18436-4 0  9997
2 56713  87.9269 341.8629 0001697 104.1122 256.0200 13.20770652105129
ONEWEB-0678             
1 56714U 23068E   25194.78094232 -.00000117  00000+0 -34358-3 0  9994
2 56714  87.9080 326.6520 0002227  99.0888 261.0494 13.15548896104793
ONEWEB-0679             
1 56715U 23068F   25194.53551431  .00000010  00000+0 -73249-5 0  9992
2 56715  87.9060 296.2718 0001515 109.2911 250.8384 13.16594509107164
ONEWEB-0680             
1 56716U 23068G   25194.58294209  .00000108  00000+0  22882-3 0  9997
2 56716  87.9262 311.5098 0001377  89.4663 270.6629 13.21825210106365
ONEWEB-0681             
1 56717U 23068H   25194.59038546  .00000119  00000+0  25544-3 0  9999
2 56717  87.9270 311.5354 0002028 128.1707 231.9610 13.22338804106352
ONEWEB-0682             
1 56718U 23068J   25194.80706835  .00000138  00000+0  33278-3 0  9991
2 56718  87.9074 326.6767 0001376  94.4517 265.6770 13.15551013104966
ONEWEB-0683             
1 56719U 23068K   25194.82847379  .00000124  00000+0  29656-3 0  9993
2 56719  87.9078 326.6434 0001608  93.5386 266.5928 13.15549376104935
ONEWEB-0684             
1 56720U 23068L   25195.06456795  .00000077  00000+0  17034-3 0  9994
2 56720  87.9050 326.6083 0003208  84.5582 275.5915 13.15549304105492
ONEWEB-0686             
1 56721U 23068M   25194.75321872  .00000025  00000+0  32548-4 0  9998
2 56721  87.9055 296.2625 0001930  91.6251 268.5101 13.16594780107180
ONEWEB-0694             
1 56722U 23068N   25194.71996189  .00000089  00000+0  19880-3 0  9997
2 56722  87.9064 296.1894 0001608  96.4082 263.7232 13.16594759107239
ONEWEB-0696             
1 56723U 23068P   25194.79361250 -.00000047  00000+0 -15934-3 0  9993
2 56723  87.9076 326.7030 0002204  99.0592 261.0788 13.15548952104870
ONEWEB-0703             
1 56724U 23068Q   25194.65099377  .00000174  00000+0  42723-3 0  9992
2 56724  87.9057 326.7243 0002902 111.5130 248.6310 13.15550457104740
ONEWEB-0721             
1 56725U 23068R   25194.71280067  .00000076  00000+0  14853-3 0  9992
2 56725  86.6809 193.3811 0002020  88.1924 271.9441 13.22440119113208
ONEWEB-0015             
1 61594U 24188A   25195.16216887  .00000486  00000+0  13362-2 0  9993
2 61594  87.8851  88.4739 0001369  93.9501 266.1783 13.11417353 38237
ONEWEB-0687             
1 61595U 24188B   25194.93537188 -.00000034  00000+0 -11995-3 0  9990
2 61595  87.9056  73.2483 0001246  68.9440 291.1825 13.17807375 41357
ONEWEB-0688             
1 61596U 24188C   25194.96383869  .00000028  00000+0  39294-4 0  9993
2 61596  87.9051  73.2437 0000905 126.6473 233.4742 13.17641946 41358
ONEWEB-0689             
1 61597U 24188D   25194.96717668 -.00000500  00000+0 -14453-2 0  9997
2 61597  87.8788  88.4930 0001644  67.1526 292.9776 13.11416318 40128
ONEWEB-0690             
1 61598U 24188E   25194.67218346 -.00000088  00000+0 -28361-3 0  9990
2 61598  87.8844  88.5055 0002493  88.8107 271.3306 13.11419020 40267
ONEWEB-0691             
1 61599U 24188F   25194.97227725 -.00000364  00000+0 -10622-2 0  9992
2 61599  87.8750  88.4524 0001567  87.8393 272.2914 13.11417386 40157
ONEWEB-0692             
1 61600U 24188G   25195.14522887  .00000468  00000+0  12841-2 0  9990
2 61600  87.8823  88.4862 0002433  57.7622 302.3742 13.11417313 38386
ONEWEB-0693             
1 61601U 24188H   25194.36821277  .00000037  00000+0  61854-4 0  9991
2 61601  87.9053  73.3791 0002322  99.6597 260.4797 13.17647265 41262
ONEWEB-0695             
1 61602U 24188J   25195.19777342 -.00000403  00000+0 -11732-2 0  9994
2 61602  87.8826  88.4615 0001860  58.9440 301.1870 13.11418639 38416
ONEWEB-0697             
1 61603U 24188K   25194.46702711  .00000545  00000+0  15004-2 0  9993
2 61603  87.8806  88.6036 0002442  60.6131 299.5240 13.11417380 40054
ONEWEB-0698             
1 61604U 24188L   25194.67387463 -.00000066  00000+0 -22099-3 0  9993
2 61604  87.8819  88.5737 0002965  73.3326 286.8128 13.11419648 40102
ONEWEB-0699             
1 61605U 24188M   25194.72274217  .00000104  00000+0  26142-3 0  9996
2 61605  87.8821 103.7557 0002081  63.8963 296.2378 13.10371414 38988
ONEWEB-0700             
1 61606U 24188N   25195.18252931  .00000332  00000+0  91483-3 0  9990
2 61606  87.8772 103.5687 0001925  55.2370 304.8939 13.10375451 37229
ONEWEB-0701             
1 61607U 24188P   25194.74099439  .00000619  00000+0  17358-2 0  9990
2 61607  87.8816 103.7602 0002576  61.6011 298.5375 13.10371921 38989
ONEWEB-0702             
1 61608U 24188Q   25194.94853640 -.00000166  00000+0 -50344-3 0  9997
2 61608  87.8747  88.4854 0002274  53.9107 306.2231 13.11413784 40151
ONEWEB-0704             
1 61609U 24188R   25194.72937201  .00000547  00000+0  15299-2 0  9990
2 61609  87.8845 103.6986 0002339  51.3053 308.8284 13.10373777 38969
ONEWEB-0705             
1 61610U 24188S   25195.19249309  .00000717  00000+0  20163-2 0  9994
2 61610  87.8806 103.6543 0001310  36.2550 323.8666 13.10374038 37331
ONEWEB-0706             
1 61611U 24188T   25195.17662361  .00016798  00000+0  48227-1 0  9996
2 61611  87.8827 103.6823 0002583  72.0125 288.1284 13.10045726 37221
